<?xml version="1.0" encoding="UTF-8"?>
<gpx version="1.1" creator="meshcore-open exporter">
  <metadata>
    <name>Répéteur</name>
    <desc>Tous les emplacements des contacts</desc>
    <time>2026-04-13T21:18:24.875708Z</time>
  </metadata>
  <wpt lat="48.887752" lon="2.258696">
    <name>Tonio MC Companion</name>
    <desc>meshcore://0342b19ab4d558ef6f5cbef3405799e41e71755dbc75901f1ba81bb81382943fec0101fff1340000000000000000000000000000000000000000000000000000000000000000000000000000000000000000000000000000000000000000000000000000546f6e696f204d4320436f6d70616e696f6e00000000000000000000000000008cfec269c8f7e902087722008dfec269</desc>
    <extensions>
      <meshcore>
        <url>Type: Chat Public Key: 42b19ab4d558ef6f5cbef3405799e41e71755dbc75901f1ba81bb81382943fec</url>
      </meshcore>
    </extensions>
  </wpt>
  <wpt lat="48.887718" lon="2.2587">
    <name>Tonio MC RPT</name>
    <desc>meshcore://03fd37402fa9f296e6254e717b10b2689decf0c5e90b7b77111b9cf101b40ac42202000000000000000000000000000000000000000000000000000000000000000000000000000000000000000000000000000000000000000000000000000000000000546f6e696f204d43205250540000000000000000000000000000000000000000d177dd69a6f7e9020c7722002c4adc69</desc>
    <extensions>
      <meshcore>
        <url>Type: Repeater Public Key: fd37402fa9f296e6254e717b10b2689decf0c5e90b7b77111b9cf101b40ac422</url>
      </meshcore>
    </extensions>
  </wpt>
  <wpt lat="48.879451" lon="2.31941">
    <name>RPT PARIS SAINT LAZARE</name>
    <desc>meshcore://033410914e5f1660bf08b015126574dbc8bed381615de8699d2b7861c474d18bdf02000000000000000000000000000000000000000000000000000000000000000000000000000000000000000000000000000000000000000000000000000000000000525054205041524953205341494e54204c415a41524520000000000000000000ad5bdd695bd7e90232642300af5bdd69</desc>
    <extensions>
      <meshcore>
        <url>Type: Repeater Public Key: 3410914e5f1660bf08b015126574dbc8bed381615de8699d2b7861c474d18bdf</url>
      </meshcore>
    </extensions>
  </wpt>
  <wpt lat="48.8545" lon="2.39193">
    <name>FR75PAR-CMP-Random</name>
    <desc>meshcore://034bef9661d6b0a00e9121686da1e9b7d540286a64382f39b71be193da44e56f4f0100ff00000000000000000000000000000000000000000000000000000000000000000000000000000000000000000000000000000000000000000000000000000000465237355041522d434d502d52616e646f6d000000000000000000000000000000000000e475e9027a7f2400a8cca069</desc>
    <extensions>
      <meshcore>
        <url>Type: Chat Public Key: 4bef9661d6b0a00e9121686da1e9b7d540286a64382f39b71be193da44e56f4f</url>
      </meshcore>
    </extensions>
  </wpt>
  <wpt lat="48.887723" lon="2.258745">
    <name>Tonio MC bot</name>
    <desc>meshcore://03cccf2ed121e6400eaa99c895652e31089ddcaaa61cdd508e5ed5efea95c3b626010103f134fd00000000000000000000000000000000000000000000000000000000000000000000000000000000000000000000000000000000000000000000000000546f6e696f204d4320626f7400000000000000000000000000000000000000000c06dd69abf7e902397722006ffddb69</desc>
    <extensions>
      <meshcore>
        <url>Type: Chat Public Key: cccf2ed121e6400eaa99c895652e31089ddcaaa61cdd508e5ed5efea95c3b626</url>
      </meshcore>
    </extensions>
  </wpt>
  <wpt lat="48.87945" lon="2.31942">
    <name>ROOM PARIS SAINT LAZARE</name>
    <desc>meshcore://03cdf96d70adbdfbc239b654828c534c770b25abb4b56486515518ce04a81bea63030002fd340000000000000000000000000000000000000000000000000000000000000000000000000000000000000000000000000000000000000000000000000000524f4f4d205041524953205341494e54204c415a4152450000000000000000003859dd6900000000000000003859dd69</desc>
    <extensions>
      <meshcore>
        <url>Type: Room Public Key: cdf96d70adbdfbc239b654828c534c770b25abb4b56486515518ce04a81bea63</url>
      </meshcore>
    </extensions>
  </wpt>
  <wpt lat="48.749" lon="2.506">
    <name>Tom_COD_RPT_e1f0</name>
    <desc>meshcore://03e1f098b837d0b3d11d59988d55908d4b8fcd661517c3bd010f8aaa62fc66ec490200ff00000000000000000000000000000000000000000000000000000000000000000000000000000000000000000000000000000000000000000000000000000000546f6d5f434f445f5250545f65316630000000000000000000000000000000003879dc69c8d9e702103d2600ab70db69</desc>
    <extensions>
      <meshcore>
        <url>Type: Repeater Public Key: e1f098b837d0b3d11d59988d55908d4b8fcd661517c3bd010f8aaa62fc66ec49</url>
      </meshcore>
    </extensions>
  </wpt>
  <wpt lat="48.82525" lon="2.36218">
    <name>Tigro G2PV</name>
    <desc>meshcore://035f592dee84b14d3c35fe025fb8b3ca29f7652e979987e27c8c0449b1af27d16c0200ff00000000000000000000000000000000000000000000000000000000000000000000000000000000000000000000000000000000000000000000000000000000546967726f2047325056000000000000000000000000000000000000000000004704d969a203e902440b24004704d969</desc>
    <extensions>
      <meshcore>
        <url>Type: Repeater Public Key: 5f592dee84b14d3c35fe025fb8b3ca29f7652e979987e27c8c0449b1af27d16c</url>
      </meshcore>
    </extensions>
  </wpt>
  <wpt lat="48.84996" lon="2.54171">
    <name>IRF Repeater</name>
    <desc>meshcore://036868ac3ebd344c1b95bb5f890121f1a4923fa56a2053f57a375f1677c189a5450200ff0000000000000000000000000000000000000000000000000000000000000000000000000000000000000000000000000000000000000000000000000000000049524620526570656174657200000000000000000000000000000000000000008fa0dc692864e9028ec826001998db69</desc>
    <extensions>
      <meshcore>
        <url>Type: Repeater Public Key: 6868ac3ebd344c1b95bb5f890121f1a4923fa56a2053f57a375f1677c189a545</url>
      </meshcore>
    </extensions>
  </wpt>
  <wpt lat="48.8578" lon="2.38029">
    <name>FR75PAR_Random_RPT3</name>
    <desc>meshcore://036938c952e0f33ed0e458bd89c0e8b941ab51871450c449698e14643f3d7b5eba0200ff00000000000000000000000000000000000000000000000000000000000000000000000000000000000000000000000000000000000000000000000000000000465237355041525f52616e646f6d5f5250543300000000000000000000000000a70edd69c882e902025224002b06dc69</desc>
    <extensions>
      <meshcore>
        <url>Type: Repeater Public Key: 6938c952e0f33ed0e458bd89c0e8b941ab51871450c449698e14643f3d7b5eba</url>
      </meshcore>
    </extensions>
  </wpt>
  <wpt lat="48.856499" lon="2.398823">
    <name>FR75PAR_Random_RPT1</name>
    <desc>meshcore://034bf9bcf6b63e2d813e281e8bd9e6acaa6a3a549a2bece9276c0b1fba6d5e7f0c0200ff00000000000000000000000000000000000000000000000000000000000000000000000000000000000000000000000000000000000000000000000000000000465237355041525f52616e646f6d5f5250543100000000000000000000000000824cb269b37de902679a24008a4cb269</desc>
    <extensions>
      <meshcore>
        <url>Type: Repeater Public Key: 4bf9bcf6b63e2d813e281e8bd9e6acaa6a3a549a2bece9276c0b1fba6d5e7f0c</url>
      </meshcore>
    </extensions>
  </wpt>
  <wpt lat="48.898002" lon="2.250645">
    <name>Gaius G2 RPT</name>
    <desc>meshcore://039f18c8e65bd31525ac6c508fb02a923da26d926ff1189389225028611f4eaf660200ff0000000000000000000000000000000000000000000000000000000000000000000000000000000000000000000000000000000000000000000000000000000047616975732047322052505400000000000000000000000000000000000000003c59dd69d21fea02955722004059dd69</desc>
    <extensions>
      <meshcore>
        <url>Type: Repeater Public Key: 9f18c8e65bd31525ac6c508fb02a923da26d926ff1189389225028611f4eaf66</url>
      </meshcore>
    </extensions>
  </wpt>
  <wpt lat="48.847654" lon="2.438342">
    <name>Étienne Observer 👀</name>
    <desc>meshcore://032a4ff1768c28e29766be1c073ef0da18c9aea133d6aa33d298f1ee3df400aa540100ff00000000000000000000000000000000000000000000000000000000000000000000000000000000000000000000000000000000000000000000000000000000c3897469656e6e65204f6273657276657220f09f918000000000000000000000be05dc69265be902c63425004afdda69</desc>
    <extensions>
      <meshcore>
        <url>Type: Chat Public Key: 2a4ff1768c28e29766be1c073ef0da18c9aea133d6aa33d298f1ee3df400aa54</url>
      </meshcore>
    </extensions>
  </wpt>
  <wpt lat="48.8653" lon="2.4435">
    <name>NarvaLoRa Node A</name>
    <desc>meshcore://033db9ab79571f0f66e808b97fd5dcab6eb2792d95ec95fc78730ac0a1099ef3470200ff000000000000000000000000000000000000000000000000000000000000000000000000000000000000000000000000000000000000000000000000000000004e617276614c6f5261204e6f64652041000000000000000000000000000000004af8dd6914a0e902ec4825001767db69</desc>
    <extensions>
      <meshcore>
        <url>Type: Repeater Public Key: 3db9ab79571f0f66e808b97fd5dcab6eb2792d95ec95fc78730ac0a1099ef347</url>
      </meshcore>
    </extensions>
  </wpt>
  <wpt lat="48.847594" lon="2.438188">
    <name>Étienne Heltec V4 - PV</name>
    <desc>meshcore://0393dacdd6d37d555f2884b0db6359962beefd0a45dde447d9e718bef1bc2367b80200ff00000000000000000000000000000000000000000000000000000000000000000000000000000000000000000000000000000000000000000000000000000000c3897469656e6e652048656c746563205634202d2050560000000000000000003b53dd69ea5ae9022c342500e24adc69</desc>
    <extensions>
      <meshcore>
        <url>Type: Repeater Public Key: 93dacdd6d37d555f2884b0db6359962beefd0a45dde447d9e718bef1bc2367b8</url>
      </meshcore>
    </extensions>
  </wpt>
  <wpt lat="48.857009" lon="2.375801">
    <name>FR75PAR_Random_Mobi</name>
    <desc>meshcore://03b6e0e1c0fc7ad7e62ea084ffd464cf8942c190211680ecb4932399578a2660650100ff00000000000000000000000000000000000000000000000000000000000000000000000000000000000000000000000000000000000000000000000000000000465237355041525f52616e646f6d5f4d6f626900000000000000000000000000fc93dc69b17fe902794024007d8bdb69</desc>
    <extensions>
      <meshcore>
        <url>Type: Chat Public Key: b6e0e1c0fc7ad7e62ea084ffd464cf8942c190211680ecb4932399578a266065</url>
      </meshcore>
    </extensions>
  </wpt>
  <wpt lat="48.847451" lon="2.438372">
    <name>Étienne</name>
    <desc>meshcore://03a3fe27d34ac0cd110c007ca8c31eb5ed4f91b54fd88eb6ac8b7b723414ab1c600100ff00000000000000000000000000000000000000000000000000000000000000000000000000000000000000000000000000000000000000000000000000000000c3897469656e6e650000000000000000000000000000000000000000000000000248dd695b5ae902e43425008a3fdc69</desc>
    <extensions>
      <meshcore>
        <url>Type: Chat Public Key: a3fe27d34ac0cd110c007ca8c31eb5ed4f91b54fd88eb6ac8b7b723414ab1c60</url>
      </meshcore>
    </extensions>
  </wpt>
  <wpt lat="48.825127" lon="2.323747">
    <name>💾JMarc</name>
    <desc>meshcore://03a89c2b9c92654cc1aef58a2261b747a50855ab93f531548b1e0d55c987ecbebd0100ff00000000000000000000000000000000000000000000000000000000000000000000000000000000000000000000000000000000000000000000000000000000f09f92be4a4d6172630000000000000000000000000000000000000000000000d2bedb692703e902237523005cb6da69</desc>
    <extensions>
      <meshcore>
        <url>Type: Chat Public Key: a89c2b9c92654cc1aef58a2261b747a50855ab93f531548b1e0d55c987ecbebd</url>
      </meshcore>
    </extensions>
  </wpt>
  <wpt lat="48.8967" lon="2.2567">
    <name>Besquare repeater</name>
    <desc>meshcore://0309ded67bc11c07f42d25e4b2573d2e5ad9a653c7fab7200d45d2ff2d9dfd07350200ff0000000000000000000000000000000000000000000000000000000000000000000000000000000000000000000000000000000000000000000000000000000042657371756172652072657065617465720000000000000000000000000000002885cf69bc1aea023c6f22003351cf69</desc>
    <extensions>
      <meshcore>
        <url>Type: Repeater Public Key: 09ded67bc11c07f42d25e4b2573d2e5ad9a653c7fab7200d45d2ff2d9dfd0735</url>
      </meshcore>
    </extensions>
  </wpt>
  <wpt lat="48.775657" lon="2.330292">
    <name>94_BIG_🍔Station G</name>
    <desc>meshcore://03c90c0938939eab0cca3585eacdcbb0b6b1266fd0bef2900ec6bb152f174779930200ff0000000000000000000000000000000000000000000000000000000000000000000000000000000000000000000000000000000000000000000000000000000039345f4249475ff09f8d9453746174696f6e2047000000000000000000000000314a7b66e941e802b48e23005c43b269</desc>
    <extensions>
      <meshcore>
        <url>Type: Repeater Public Key: c90c0938939eab0cca3585eacdcbb0b6b1266fd0bef2900ec6bb152f17477993</url>
      </meshcore>
    </extensions>
  </wpt>
  <wpt lat="48.825043" lon="2.323878">
    <name>💾JM14-RPT</name>
    <desc>meshcore://031346ac0defbcc7e5800df1a051e18ace222e3a23282d20decd5d9e821750889b0200ff00000000000000000000000000000000000000000000000000000000000000000000000000000000000000000000000000000000000000000000000000000000f09f92be4a4d31342d5250540000000000000000000000000000000000000000b8aedc69d302e902a67523003da6db69</desc>
    <extensions>
      <meshcore>
        <url>Type: Repeater Public Key: 1346ac0defbcc7e5800df1a051e18ace222e3a23282d20decd5d9e821750889b</url>
      </meshcore>
    </extensions>
  </wpt>
  <wpt lat="48.897143" lon="2.251197">
    <name>🐈Gaius</name>
    <desc>meshcore://03aea7648b13bc7bc7fa41748981629597b72cbb7d86284cd941c436a5df3a1f2e0100ff00000000000000000000000000000000000000000000000000000000000000000000000000000000000000000000000000000000000000000000000000000000f09f90884761697573000000000000000000000000000000000000000000000021eedb69771cea02bd592200a9e5da69</desc>
    <extensions>
      <meshcore>
        <url>Type: Chat Public Key: aea7648b13bc7bc7fa41748981629597b72cbb7d86284cd941c436a5df3a1f2e</url>
      </meshcore>
    </extensions>
  </wpt>
  <wpt lat="48.749" lon="2.506">
    <name>Tom_COD_RPT_1ce8</name>
    <desc>meshcore://031ce877d63d2b43f3b789375d1d0a1f8ab7dc1e02698105101294b1e468fe62180200ff00000000000000000000000000000000000000000000000000000000000000000000000000000000000000000000000000000000000000000000000000000000546f6d5f434f445f5250545f31636538000000000000000000000000000000004a58d969c8d9e702103d26005058d969</desc>
    <extensions>
      <meshcore>
        <url>Type: Repeater Public Key: 1ce877d63d2b43f3b789375d1d0a1f8ab7dc1e02698105101294b1e468fe6218</url>
      </meshcore>
    </extensions>
  </wpt>
  <wpt lat="48.8179" lon="2.419617">
    <name>Artemus</name>
    <desc>meshcore://03787119d0abec5a883ca08ddd5c31c5a692a1c97086a044579ec14aa25cf952ea0100ff00000000000000000000000000000000000000000000000000000000000000000000000000000000000000000000000000000000000000000000000000000000417274656d757300000000000000000000000000000000000000000000000000d348a369ece6e802a1eb2400de48a369</desc>
    <extensions>
      <meshcore>
        <url>Type: Chat Public Key: 787119d0abec5a883ca08ddd5c31c5a692a1c97086a044579ec14aa25cf952ea</url>
      </meshcore>
    </extensions>
  </wpt>
  <wpt lat="48.823008" lon="2.27775">
    <name>RR92F1 Repeteur MC</name>
    <desc>meshcore://03f10b9e24824353249fd7cfb14ee8e7d21daf0e80d136a3853b406f4bc398ced30200ff00000000000000000000000000000000000000000000000000000000000000000000000000000000000000000000000000000000000000000000000000000000525239324631205265706574657572204d430000000000000000000000000000bf12da69e0fae80276c12200a912da69</desc>
    <extensions>
      <meshcore>
        <url>Type: Repeater Public Key: f10b9e24824353249fd7cfb14ee8e7d21daf0e80d136a3853b406f4bc398ced3</url>
      </meshcore>
    </extensions>
  </wpt>
  <wpt lat="48.887751" lon="2.258742">
    <name>Wardriving</name>
    <desc>meshcore://03bb1e4ea6650c53a4f96ff4f9b4838abc8ba22a1db6f511a772f36ffa7daad13b0300000000000000000000000000000000000000000000000000000000000000000000000000000000000000000000000000000000000000000000000000000000000057617264726976696e670000000000000000000000000000000000000000000021cdd669c7f7e902367722003acdd669</desc>
    <extensions>
      <meshcore>
        <url>Type: Room Public Key: bb1e4ea6650c53a4f96ff4f9b4838abc8ba22a1db6f511a772f36ffa7daad13b</url>
      </meshcore>
    </extensions>
  </wpt>
  <wpt lat="48.749869" lon="2.506885">
    <name>Tom_COD_TD</name>
    <desc>meshcore://03e7b729ad081bf358f86ce0da0c4501c67e989942183c4343192fed60a09c87040100ff00000000000000000000000000000000000000000000000000000000000000000000000000000000000000000000000000000000000000000000000000000000546f6d5f434f445f544400000000000000000000000000000000000000000000ef9344662ddde70285402600fc4fab69</desc>
    <extensions>
      <meshcore>
        <url>Type: Chat Public Key: e7b729ad081bf358f86ce0da0c4501c67e989942183c4343192fed60a09c8704</url>
      </meshcore>
    </extensions>
  </wpt>
  <wpt lat="48.85575" lon="2.401">
    <name>FR75PAR_Random_RPT0</name>
    <desc>meshcore://031d9058baf8a5967d5acd0b5f2e69c02b31e01d7f5694a327f8b18d05a3e84a030200ff00000000000000000000000000000000000000000000000000000000000000000000000000000000000000000000000000000000000000000000000000000000465237355041525f52616e646f6d5f525054300000000000000000000000000018e6dc69c67ae902e8a224009edddb69</desc>
    <extensions>
      <meshcore>
        <url>Type: Repeater Public Key: 1d9058baf8a5967d5acd0b5f2e69c02b31e01d7f5694a327f8b18d05a3e84a03</url>
      </meshcore>
    </extensions>
  </wpt>
  <wpt lat="48.74897" lon="2.5067">
    <name>Tom COD T1Ke</name>
    <desc>meshcore://03fdf7189bff4f5e741974092ccb48d1c9d0a31b24eafc08a032f3487213b8331b0100ff00000000000000000000000000000000000000000000000000000000000000000000000000000000000000000000000000000000000000000000000000000000546f6d20434f442054314b6500000000000000000000000000000000000000009fc3ad69aad9e702cc3f2600a7c3ad69</desc>
    <extensions>
      <meshcore>
        <url>Type: Chat Public Key: fdf7189bff4f5e741974092ccb48d1c9d0a31b24eafc08a032f3487213b8331b</url>
      </meshcore>
    </extensions>
  </wpt>
  <wpt lat="48.878125" lon="2.298161">
    <name>NanoCore</name>
    <desc>meshcore://03f86f0aae036492cb90b646670a70a182bc28f0dfd27549e168e9e203478e04e30200ff000000000000000000000000000000000000000000000000000000000000000000000000000000000000000000000000000000000000000000000000000000004e616e6f436f72650000000000000000000000000000000000000000000000005243dd692dd2e90231112300d93adc69</desc>
    <extensions>
      <meshcore>
        <url>Type: Repeater Public Key: f86f0aae036492cb90b646670a70a182bc28f0dfd27549e168e9e203478e04e3</url>
      </meshcore>
    </extensions>
  </wpt>
  <wpt lat="48.887598" lon="2.214071">
    <name>Nanterre RPT</name>
    <desc>meshcore://03ca6875bc67a0d264c5b6887bb985311311586e862cb8919764b412d7f21f7c200200ff000000000000000000000000000000000000000000000000000000000000000000000000000000000000000000000000000000000000000000000000000000004e616e74657272652052505400000000000000000000000000000000000000002846dd692ef7e902b7c82100af3ddc69</desc>
    <extensions>
      <meshcore>
        <url>Type: Repeater Public Key: ca6875bc67a0d264c5b6887bb985311311586e862cb8919764b412d7f21f7c20</url>
      </meshcore>
    </extensions>
  </wpt>
  <wpt lat="48.93296" lon="2.183634">
    <name>Houilles Repeater</name>
    <desc>meshcore://03ea0f1eab6476dfa205805e0757245fbd9441b0d737bc1b5795c5f6ed2f6465b90200ff00000000000000000000000000000000000000000000000000000000000000000000000000000000000000000000000000000000000000000000000000000000486f75696c6c6573205265706561746572000000000000000000000000000000b13c456660a8ea02d251210063c7b069</desc>
    <extensions>
      <meshcore>
        <url>Type: Repeater Public Key: ea0f1eab6476dfa205805e0757245fbd9441b0d737bc1b5795c5f6ed2f6465b9</url>
      </meshcore>
    </extensions>
  </wpt>
  <wpt lat="48.844818" lon="2.38291">
    <name>75PARILM8ReN_Col_Bourgo</name>
    <desc>meshcore://03607ecf99aeaf43d0a0ef4c0acea2960ee33b04e778983e450a802e9e3f58bc060200ff000000000000000000000000000000000000000000000000000000000000000000000000000000000000000000000000000000000000000000000000000000003735504152494c4d3852654e5f436f6c5f426f7572676f000000000000000000ec5ed0691250e9023e5c2400d05ed069</desc>
    <extensions>
      <meshcore>
        <url>Type: Repeater Public Key: 607ecf99aeaf43d0a0ef4c0acea2960ee33b04e778983e450a802e9e3f58bc06</url>
      </meshcore>
    </extensions>
  </wpt>
  <wpt lat="48.910056" lon="2.173497">
    <name>XiaoS3 Repeater</name>
    <desc>meshcore://036a3eef5505de019c7437a75b7f8793e5d14b3cd019fcca7e0285f13bce3156cb0200ff000000000000000000000000000000000000000000000000000000000000000000000000000000000000000000000000000000000000000000000000000000005869616f53332052657065617465720000000000000000000000000000000000d1b6839ce84eea02392a21009e40b569</desc>
    <extensions>
      <meshcore>
        <url>Type: Repeater Public Key: 6a3eef5505de019c7437a75b7f8793e5d14b3cd019fcca7e0285f13bce3156cb</url>
      </meshcore>
    </extensions>
  </wpt>
  <wpt lat="48.85867" lon="2.37013">
    <name>FR75PAR_ENSCI</name>
    <desc>meshcore://0311cf5cb1a6c9eb9f019a69dc45ab326dcbcbd47a8b8448ce09d1f15ccf007c8c0200ff00000000000000000000000000000000000000000000000000000000000000000000000000000000000000000000000000000000000000000000000000000000465237355041525f454e53434900000000000000000000000000000000000000cc59dd692e86e902522a2400b859dd69</desc>
    <extensions>
      <meshcore>
        <url>Type: Repeater Public Key: 11cf5cb1a6c9eb9f019a69dc45ab326dcbcbd47a8b8448ce09d1f15ccf007c8c</url>
      </meshcore>
    </extensions>
  </wpt>
  <wpt lat="48.82537" lon="2.36195">
    <name>Tigro Room pw hello</name>
    <desc>meshcore://0382cae656e0d43f3e86e3ef79614f4bbf40caf823d9d38f6905a4ef27b4672bef0300fffd345f34fd0000000000000000000000000000000000000000000000000000000000000000000000000000000000000000000000000000000000000000000000546967726f20526f6f6d2070772068656c6c6f00000000000000000000000000a174d6691a04e9025e0a240046dddb69</desc>
    <extensions>
      <meshcore>
        <url>Type: Room Public Key: 82cae656e0d43f3e86e3ef79614f4bbf40caf823d9d38f6905a4ef27b4672bef</url>
      </meshcore>
    </extensions>
  </wpt>
  <wpt lat="48.934293" lon="2.182833">
    <name>Zombie D'houilles 🧟</name>
    <desc>meshcore://0309cffad7e03c8a50241c03fb5a8834f5ef54793a71a2be6c33727a5765eca2400100ff000000000000000000000000000000000000000000000000000000000000000000000000000000000000000000000000000000000000000000000000000000005a6f6d626965204427686f75696c6c657320f09fa79f0000000000000000000037b7b96995adea02b14e21003eb7b969</desc>
    <extensions>
      <meshcore>
        <url>Type: Chat Public Key: 09cffad7e03c8a50241c03fb5a8834f5ef54793a71a2be6c33727a5765eca240</url>
      </meshcore>
    </extensions>
  </wpt>
  <wpt lat="48.862248" lon="2.289846">
    <name>BaseRunner</name>
    <desc>meshcore://0343063e9145ad8283177876ffb14befcf7b7563637bf2bbdae082d4b3b98c359d0100ff000000000000000000000000000000000000000000000000000000000000000000000000000000000000000000000000000000000000000000000000000000004261736552756e6e65720000000000000000000000000000000000000000000036ecb7692894e902b6f022003eecb769</desc>
    <extensions>
      <meshcore>
        <url>Type: Chat Public Key: 43063e9145ad8283177876ffb14befcf7b7563637bf2bbdae082d4b3b98c359d</url>
      </meshcore>
    </extensions>
  </wpt>
  <wpt lat="48.857534" lon="2.452645">
    <name>Freebox-D8529C</name>
    <desc>meshcore://03d8529c243c01ba9c14690bbf4eb599501d56d22344c67668dab7f9538edb71110200ff0000000000000000000000000000000000000000000000000000000000000000000000000000000000000000000000000000000000000000000000000000000046726565626f782d4438353239430000000000000000000000000000000000008948dd69be81e902a56c25001140dc69</desc>
    <extensions>
      <meshcore>
        <url>Type: Repeater Public Key: d8529c243c01ba9c14690bbf4eb599501d56d22344c67668dab7f9538edb7111</url>
      </meshcore>
    </extensions>
  </wpt>
  <wpt lat="48.685614" lon="2.472541">
    <name>SimonJ</name>
    <desc>meshcore://03903cabb83dce8d8f74f508e67c5e122c9a6d83d3c507e1cf8c558ecebc1a92630100ff0000000000000000000000000000000000000000000000000000000000000000000000000000000000000000000000000000000000000000000000000000000053696d6f6e4a0000000000000000000000000000000000000000000000000000759444662ee2e6025dba250000feba69</desc>
    <extensions>
      <meshcore>
        <url>Type: Chat Public Key: 903cabb83dce8d8f74f508e67c5e122c9a6d83d3c507e1cf8c558ecebc1a9263</url>
      </meshcore>
    </extensions>
  </wpt>
  <wpt lat="48.910954" lon="2.173745">
    <name>OSR V4</name>
    <desc>meshcore://032f74af48a7d76f6c0398bf4eaafdfb06967854b391e49c0390c2e9f818ac079d0100ff000000000000000000000000000000000000000000000000000000000000000000000000000000000000000000000000000000000000000000000000000000004f53522056340000000000000000000000000000000000000000000000000000cb1ddba46a52ea02312b2100c9a7bb69</desc>
    <extensions>
      <meshcore>
        <url>Type: Chat Public Key: 2f74af48a7d76f6c0398bf4eaafdfb06967854b391e49c0390c2e9f818ac079d</url>
      </meshcore>
    </extensions>
  </wpt>
  <wpt lat="48.84223" lon="2.379543">
    <name>OSR v4</name>
    <desc>meshcore://03a5e30d48fd38b1397f03363d4f5f5011e52facda1a4c3b75696b9553088a5a7d0100ff000000000000000000000000000000000000000000000000000000000000000000000000000000000000000000000000000000000000000000000000000000004f535220763400000000000000000000000000000000000000000000000000001935bc69f645e902174f24002335bc69</desc>
    <extensions>
      <meshcore>
        <url>Type: Chat Public Key: a5e30d48fd38b1397f03363d4f5f5011e52facda1a4c3b75696b9553088a5a7d</url>
      </meshcore>
    </extensions>
  </wpt>
  <wpt lat="48.91064" lon="2.174125">
    <name>OSR wio</name>
    <desc>meshcore://031a49ded5986911d2abea64014789ec11f706533af89bc36a04c895dbd9674dfd0100ff000000000000000000000000000000000000000000000000000000000000000000000000000000000000000000000000000000000000000000000000000000004f53522077696f0000000000000000000000000000000000000000000000000048e3bb693051ea02ad2c210056e3bb69</desc>
    <extensions>
      <meshcore>
        <url>Type: Chat Public Key: 1a49ded5986911d2abea64014789ec11f706533af89bc36a04c895dbd9674dfd</url>
      </meshcore>
    </extensions>
  </wpt>
  <wpt lat="48.803562" lon="2.405036">
    <name>AirbornRoom PW : hello</name>
    <desc>meshcore://03af82f588f9a19883b24516c5f643e30f259a7eff7b8f80efde871b403e4fe176030004fd1d5fc9fd0000000000000000000000000000000000000000000000000000000000000000000000000000000000000000000000000000000000000000000000416972626f726e526f6f6d205057203a2068656c6c6f00000000000000000000efdfc469eaaee802acb22400afdfc469</desc>
    <extensions>
      <meshcore>
        <url>Type: Room Public Key: af82f588f9a19883b24516c5f643e30f259a7eff7b8f80efde871b403e4fe176</url>
      </meshcore>
    </extensions>
  </wpt>
  <wpt lat="48.908887" lon="2.171172">
    <name>hvq1 Seb Bois-d'Arcy</name>
    <desc>meshcore://03f623ba870e1f98aeb6e3854cecdbfc90c9f784172cf2108aec8d932451c14cef0100ff00000000000000000000000000000000000000000000000000000000000000000000000000000000000000000000000000000000000000000000000000000000687671312053656220426f69732d64274172637900000000000000000000000083f2be69574aea022421210089f2be69</desc>
    <extensions>
      <meshcore>
        <url>Type: Chat Public Key: f623ba870e1f98aeb6e3854cecdbfc90c9f784172cf2108aec8d932451c14cef</url>
      </meshcore>
    </extensions>
  </wpt>
  <wpt lat="48.79513" lon="2.38628">
    <name>DAN-94 VITRY RPT</name>
    <desc>meshcore://03c999edbe2244f68c89a8141973099c9543695ba1063e8d95e7983c3227fc9d140200ff0000000000000000000000000000000000000000000000000000000000000000000000000000000000000000000000000000000000000000000000000000000044414e2d3934205649545259205250540000000000000000000000000000000031d44b66fa8de8026869240071b8c469</desc>
    <extensions>
      <meshcore>
        <url>Type: Repeater Public Key: c999edbe2244f68c89a8141973099c9543695ba1063e8d95e7983c3227fc9d14</url>
      </meshcore>
    </extensions>
  </wpt>
  <wpt lat="48.74924" lon="2.50638">
    <name>Tom_COD_TD</name>
    <desc>meshcore://0368385a58cb4d41be184795cbf6db941b7a9eee18e7f321677a89d40efba3a1b70100ff00000000000000000000000000000000000000000000000000000000000000000000000000000000000000000000000000000000000000000000000000000000546f6d5f434f445f544400000000000000000000000000000000000000000000d7b5bf69b8dae7028c3e2600deb5bf69</desc>
    <extensions>
      <meshcore>
        <url>Type: Chat Public Key: 68385a58cb4d41be184795cbf6db941b7a9eee18e7f321677a89d40efba3a1b7</url>
      </meshcore>
    </extensions>
  </wpt>
  <wpt lat="48.887702" lon="2.213361">
    <name>OSR t1000</name>
    <desc>meshcore://03cbdfe541798de11fc058b9b0964ccf65765786aec8333266851a555de4c220890100ff000000000000000000000000000000000000000000000000000000000000000000000000000000000000000000000000000000000000000000000000000000004f53522074313030300000000000000000000000000000000000000000000000f3c7d46996f7e902f1c52100e5e9d069</desc>
    <extensions>
      <meshcore>
        <url>Type: Chat Public Key: cbdfe541798de11fc058b9b0964ccf65765786aec8333266851a555de4c22089</url>
      </meshcore>
    </extensions>
  </wpt>
  <wpt lat="48.727036" lon="2.078039">
    <name>Mr HI - Bifrost</name>
    <desc>meshcore://030ce8fe4fb8e5ea2c0a7b1a974dfbd604ba8a63f68da6a26f146c4bd1cea1ffe60200ff000000000000000000000000000000000000000000000000000000000000000000000000000000000000000000000000000000000000000000000000000000004d72204849202d20426966726f737400000000000000000000000000000000007a0fc169fc83e70257b51f00830fc169</desc>
    <extensions>
      <meshcore>
        <url>Type: Repeater Public Key: 0ce8fe4fb8e5ea2c0a7b1a974dfbd604ba8a63f68da6a26f146c4bd1cea1ffe6</url>
      </meshcore>
    </extensions>
  </wpt>
  <wpt lat="48.719822" lon="2.088156">
    <name>T1 🥖Préfou🥖</name>
    <desc>meshcore://0304553742c1491e256c0f2da83d31ac2c0b42235160a747659e576e7350b1e3f60200ff00000000000000000000000000000000000000000000000000000000000000000000000000000000000000000000000000000000000000000000000000000000543120f09fa5965072c3a9666f75f09fa59600000000000000000000000000005044c269ce67e702dcdc1f006344c269</desc>
    <extensions>
      <meshcore>
        <url>Type: Repeater Public Key: 04553742c1491e256c0f2da83d31ac2c0b42235160a747659e576e7350b1e3f6</url>
      </meshcore>
    </extensions>
  </wpt>
  <wpt lat="48.72528" lon="2.08191">
    <name>Mr HI - Valhalla</name>
    <desc>meshcore://039707904df33dfddcb2ce37cbce6bd1c7897eee43aa9cfec9a1de3090111258760200ff000000000000000000000000000000000000000000000000000000000000000000000000000000000000000000000000000000000000000000000000000000004d72204849202d2056616c68616c6c6100000000000000000000000000000000cd58c269207de70276c41f00f858c269</desc>
    <extensions>
      <meshcore>
        <url>Type: Repeater Public Key: 9707904df33dfddcb2ce37cbce6bd1c7897eee43aa9cfec9a1de309011125876</url>
      </meshcore>
    </extensions>
  </wpt>
  <wpt lat="48.762828" lon="2.045239">
    <name>Trinity</name>
    <desc>meshcore://0399cd2170ade198be8f2cdbf655823fb47280965985ee57610a55b537aa9c48990200ff000000000000000000000000000000000000000000000000000000000000000000000000000000000000000000000000000000000000000000000000000000005472696e69747900000000000000000000000000000000000000000000000000190ec269cc0fe80237351f002b0ec269</desc>
    <extensions>
      <meshcore>
        <url>Type: Repeater Public Key: 99cd2170ade198be8f2cdbf655823fb47280965985ee57610a55b537aa9c4899</url>
      </meshcore>
    </extensions>
  </wpt>
  <wpt lat="48.421927" lon="3.647392">
    <name>🐘 Stampy 🍄</name>
    <desc>meshcore://03c74c4b050db3426d96d7531422d4b3e2a4f8eb36dfe6fd3a98a7e33d560efed30100ff00000000000000000000000000000000000000000000000000000000000000000000000000000000000000000000000000000000000000000000000000000000f09f9098205374616d707920f09f8d84000000000000000000000000000000009d4cc26927dce202a0a73700ab4cc269</desc>
    <extensions>
      <meshcore>
        <url>Type: Chat Public Key: c74c4b050db3426d96d7531422d4b3e2a4f8eb36dfe6fd3a98a7e33d560efed3</url>
      </meshcore>
    </extensions>
  </wpt>
  <wpt lat="49.803222" lon="0.528838">
    <name>F4LCN_V4_gps</name>
    <desc>meshcore://037cf95a2325365b065c197176a18b6b48069fb60665193b4f9e63a43422962d0e0100ff0000000000000000000000000000000000000000000000000000000000000000000000000000000000000000000000000000000000000000000000000000000046344c434e5f56345f677073000000000000000000000000000000000000000067f3c469d6eff702c61108006af3c469</desc>
    <extensions>
      <meshcore>
        <url>Type: Chat Public Key: 7cf95a2325365b065c197176a18b6b48069fb60665193b4f9e63a43422962d0e</url>
      </meshcore>
    </extensions>
  </wpt>
  <wpt lat="48.79502" lon="2.386261">
    <name>DAN94</name>
    <desc>meshcore://03857aae29e38eed42f831edfc6b62476baef054a34f8026e96a0b7c830668068f0100ff0000000000000000000000000000000000000000000000000000000000000000000000000000000000000000000000000000000000000000000000000000000044414e39340000000000000000000000000000000000000000000000000000007912ca698c8de802556924007d12ca69</desc>
    <extensions>
      <meshcore>
        <url>Type: Chat Public Key: 857aae29e38eed42f831edfc6b62476baef054a34f8026e96a0b7c830668068f</url>
      </meshcore>
    </extensions>
  </wpt>
  <wpt lat="48.730475" lon="2.448113">
    <name>FR94_Etienne</name>
    <desc>meshcore://039ef312aa2a7674b5179254a2c1ff9b775a29837fea37cce96b5d67dce661395e0100ff00000000000000000000000000000000000000000000000000000000000000000000000000000000000000000000000000000000000000000000000000000000465239345f457469656e6e6500000000000000000000000000000000000000002102dd696b91e702f15a2500a9f9db69</desc>
    <extensions>
      <meshcore>
        <url>Type: Chat Public Key: 9ef312aa2a7674b5179254a2c1ff9b775a29837fea37cce96b5d67dce661395e</url>
      </meshcore>
    </extensions>
  </wpt>
  <wpt lat="48.73175" lon="2.449531">
    <name>VSG Repeater</name>
    <desc>meshcore://039d883a9e682ccf75dd97ae1e91d35d267e213f2323d001662877df4009e8d3440200ff0000000000000000000000000000000000000000000000000000000000000000000000000000000000000000000000000000000000000000000000000000000056534720526570656174657200000000000000000000000000000000000000005f3ddd696696e7027b602500e234dc69</desc>
    <extensions>
      <meshcore>
        <url>Type: Repeater Public Key: 9d883a9e682ccf75dd97ae1e91d35d267e213f2323d001662877df4009e8d344</url>
      </meshcore>
    </extensions>
  </wpt>
  <wpt lat="48.817482" lon="2.27629">
    <name>RR92F1MC-M</name>
    <desc>meshcore://03925080bc6b359be9aa39b7db27eaccb12afe311564b00c1244ef636893b8cf870100ff000000000000000000000000000000000000000000000000000000000000000000000000000000000000000000000000000000000000000000000000000000005252393246314d432d4d00000000000000000000000000000000000000000000fca9c7694ae5e802c2bb220009aac769</desc>
    <extensions>
      <meshcore>
        <url>Type: Chat Public Key: 925080bc6b359be9aa39b7db27eaccb12afe311564b00c1244ef636893b8cf87</url>
      </meshcore>
    </extensions>
  </wpt>
  <wpt lat="48.732455" lon="2.45463">
    <name>VSG Repeater 02</name>
    <desc>meshcore://038d5f19f0aa130f087bcf78f266b5c8ddea2c3abc0cac0ec6442a75f5022410460200ff000000000000000000000000000000000000000000000000000000000000000000000000000000000000000000000000000000000000000000000000000000005653472052657065617465722030320000000000000000000000000000000000c34bd9692799e70266742500cc4bd969</desc>
    <extensions>
      <meshcore>
        <url>Type: Repeater Public Key: 8d5f19f0aa130f087bcf78f266b5c8ddea2c3abc0cac0ec6442a75f502241046</url>
      </meshcore>
    </extensions>
  </wpt>
  <wpt lat="48.888771" lon="2.257003">
    <name>Tonio MC Companion</name>
    <desc>meshcore://03f5cad0ef707cdaf07bd4e746a015dd1de4c6d98e33f6aa32b2011c1a6990abdd01000000000000000000000000000000000000000000000000000000000000000000000000000000000000000000000000000000000000000000000000000000000000546f6e696f204d4320436f6d70616e696f6e00000000000000000000000000007304dc69c3fbe9026b702200f4fbda69</desc>
    <extensions>
      <meshcore>
        <url>Type: Chat Public Key: f5cad0ef707cdaf07bd4e746a015dd1de4c6d98e33f6aa32b2011c1a6990abdd</url>
      </meshcore>
    </extensions>
  </wpt>
  <wpt lat="48.933863" lon="2.182293">
    <name>Zombie d'houilles Repea</name>
    <desc>meshcore://0352403f6a68b0cff2e6cc0e70ed98067d4ca09e0494c753ec4e258322e2dd9ebd0200ff000000000000000000000000000000000000000000000000000000000000000000000000000000000000000000000000000000000000000000000000000000005a6f6d626965206427686f75696c6c657320526570656100000000000000000041fa0100e7abea02954c2100bacdca69</desc>
    <extensions>
      <meshcore>
        <url>Type: Repeater Public Key: 52403f6a68b0cff2e6cc0e70ed98067d4ca09e0494c753ec4e258322e2dd9ebd</url>
      </meshcore>
    </extensions>
  </wpt>
  <wpt lat="48.823932" lon="2.240011">
    <name>L1 SonaR 📡</name>
    <desc>meshcore://032a2e680a345ab7f50bb2290ebc5d7cd8d140ab863930d926a8807fd4136e4e490100ff000000000000000000000000000000000000000000000000000000000000000000000000000000000000000000000000000000000000000000000000000000004c3120536f6e615220f09f93a100000000000000000000000000000000000000a71fcc697cfee8020b2e2200b21fcc69</desc>
    <extensions>
      <meshcore>
        <url>Type: Chat Public Key: 2a2e680a345ab7f50bb2290ebc5d7cd8d140ab863930d926a8807fd4136e4e49</url>
      </meshcore>
    </extensions>
  </wpt>
  <wpt lat="48.824767" lon="2.241457">
    <name>XIAO SonaR ☀︎ RPT</name>
    <desc>meshcore://0389129e70d9a6e43ad72f4d6e8405dd7c521d4734b1be3c93ae5afe2fb8c61f980200ff000000000000000000000000000000000000000000000000000000000000000000000000000000000000000000000000000000000000000000000000000000005849414f20536f6e615220e29880efb88e2052505400000000000000000000007eabd969bf01e902b133220074abd969</desc>
    <extensions>
      <meshcore>
        <url>Type: Repeater Public Key: 89129e70d9a6e43ad72f4d6e8405dd7c521d4734b1be3c93ae5afe2fb8c61f98</url>
      </meshcore>
    </extensions>
  </wpt>
  <wpt lat="48.82526" lon="2.24003">
    <name>M6 SonaR ☀︎ RPT</name>
    <desc>meshcore://030e466030a2ca97e41d4235300acd3da682de70ad57876d6497854dd686da307f0200ff000000000000000000000000000000000000000000000000000000000000000000000000000000000000000000000000000000000000000000000000000000004d3620536f6e615220e29880efb88e2052505400000000000000000000000000724adc69ac03e9021e2e22000d42db69</desc>
    <extensions>
      <meshcore>
        <url>Type: Repeater Public Key: 0e466030a2ca97e41d4235300acd3da682de70ad57876d6497854dd686da307f</url>
      </meshcore>
    </extensions>
  </wpt>
  <wpt lat="48.93381" lon="2.182653">
    <name>zombie d'houilles🧟rp</name>
    <desc>meshcore://034eb0113e1275a69b37d7229d2f4209301a875a61fe2df7e66f2134ead77dff220200ff000000000000000000000000000000000000000000000000000000000000000000000000000000000000000000000000000000000000000000000000000000007a6f6d626965206427686f75696c6c6573f09fa79f72700000000000000000009df7d469b2abea02fd4d2100a219d169</desc>
    <extensions>
      <meshcore>
        <url>Type: Repeater Public Key: 4eb0113e1275a69b37d7229d2f4209301a875a61fe2df7e66f2134ead77dff22</url>
      </meshcore>
    </extensions>
  </wpt>
  <wpt lat="48.907661" lon="2.0209">
    <name>78 Aigremont RPT Solar</name>
    <desc>meshcore://036557297fb93f77720bd0612f9067f47d6fc2df25b1bbd33392868368bbe306650200ff0000000000000000000000000000000000000000000000000000000000000000000000000000000000000000000000000000000000000000000000000000000037382041696772656d6f6e742052505420536f6c6172000000000000000000002673d8698d45ea0224d61e001b73d869</desc>
    <extensions>
      <meshcore>
        <url>Type: Repeater Public Key: 6557297fb93f77720bd0612f9067f47d6fc2df25b1bbd33392868368bbe30665</url>
      </meshcore>
    </extensions>
  </wpt>
  <wpt lat="48.842327" lon="2.436663">
    <name>RAK4631 Repeater</name>
    <desc>meshcore://03552cf1b40e13e79f3b6c46ec21e37698aee5851625bf61d81495463d0424defb0200ff0000000000000000000000000000000000000000000000000000000000000000000000000000000000000000000000000000000000000000000000000000000052414b3436333120526570656174657200000000000000000000000000000000ff3cd0695746e902372e25000d3dd069</desc>
    <extensions>
      <meshcore>
        <url>Type: Repeater Public Key: 552cf1b40e13e79f3b6c46ec21e37698aee5851625bf61d81495463d0424defb</url>
      </meshcore>
    </extensions>
  </wpt>
  <wpt lat="47.583138" lon="-0.623176">
    <name>Ithaca49</name>
    <desc>meshcore://031e2862505954220df66b92eae873d5632a8ca5d341245ce1e3db1da0ab759cfe0100ff000000000000000000000000000000000000000000000000000000000000000000000000000000000000000000000000000000000000000000000000000000004974686163613439000000000000000000000000000000000000000000000000f13bd669a20fd602b87df6fff33bd669</desc>
    <extensions>
      <meshcore>
        <url>Type: Chat Public Key: 1e2862505954220df66b92eae873d5632a8ca5d341245ce1e3db1da0ab759cfe</url>
      </meshcore>
    </extensions>
  </wpt>
  <wpt lat="48.747955" lon="2.50927">
    <name>Tom COD WP</name>
    <desc>meshcore://03c213ce256606ee3137b3282bd7678eb6869c7bb84cac2711b839b0d1b61d152c0100ff00000000000000000000000000000000000000000000000000000000000000000000000000000000000000000000000000000000000000000000000000000000546f6d20434f4420575000000000000000000000000000000000000000000000c3f3db69b3d5e702d64926004cebda69</desc>
    <extensions>
      <meshcore>
        <url>Type: Chat Public Key: c213ce256606ee3137b3282bd7678eb6869c7bb84cac2711b839b0d1b61d152c</url>
      </meshcore>
    </extensions>
  </wpt>
  <wpt lat="49.061952" lon="2.045554">
    <name>Octa</name>
    <desc>meshcore://03d2cfa4c6123e4e5762f346c11ae930685aa8e6f90199fa27509854a42c6a61140100ff000000000000000000000000000000000000000000000000000000000000000000000000000000000000000000000000000000000000000000000000000000004f63746100000000000000000000000000000000000000000000000000000000a8bad86940a0ec0272361f00abbad869</desc>
    <extensions>
      <meshcore>
        <url>Type: Chat Public Key: d2cfa4c6123e4e5762f346c11ae930685aa8e6f90199fa27509854a42c6a6114</url>
      </meshcore>
    </extensions>
  </wpt>
  <wpt lat="48.933845" lon="2.182493">
    <name>Zombie D'houilles 🧟</name>
    <desc>meshcore://033ceee4a38e84e4b688e4e4628fbdd5c31239dc237383166121b573ee3c98a4180100ff000000000000000000000000000000000000000000000000000000000000000000000000000000000000000000000000000000000000000000000000000000005a6f6d626965204427686f75696c6c657320f09fa79f000000000000000000005c18dc69d5abea025d4d2100cc0fdb69</desc>
    <extensions>
      <meshcore>
        <url>Type: Chat Public Key: 3ceee4a38e84e4b688e4e4628fbdd5c31239dc237383166121b573ee3c98a418</url>
      </meshcore>
    </extensions>
  </wpt>
  <wpt lat="48.82532" lon="2.36206">
    <name>Tigro G2PV</name>
    <desc>meshcore://0362010a0a61b29fc8ede63c88a4e826b8a46199eafac674cdcc0fda4eb44750070200ff00000000000000000000000000000000000000000000000000000000000000000000000000000000000000000000000000000000000000000000000000000000546967726f2047325056000000000000000000000000000000000000000000005653dd69e803e902cc0a2400d74adc69</desc>
    <extensions>
      <meshcore>
        <url>Type: Repeater Public Key: 62010a0a61b29fc8ede63c88a4e826b8a46199eafac674cdcc0fda4eb4475007</url>
      </meshcore>
    </extensions>
  </wpt>
  <wpt lat="49.053558" lon="2.138289">
    <name>RPT CERGY/SOA DC5</name>
    <desc>meshcore://03aae91a53df4eff95046d397ad379464d556255c6939ba69a314aa63d46e4837c0200ff000000000000000000000000000000000000000000000000000000000000000000000000000000000000000000000000000000000000000000000000000000005250542043455247592f534f4120444335000000000000000000000000000000c966dc69767fec02b1a020004d5edb69</desc>
    <extensions>
      <meshcore>
        <url>Type: Repeater Public Key: aae91a53df4eff95046d397ad379464d556255c6939ba69a314aa63d46e4837c</url>
      </meshcore>
    </extensions>
  </wpt>
  <wpt lat="48.76494" lon="2.050927">
    <name>🐇Néo</name>
    <desc>meshcore://039150fffd5977298186e9deabe8fee30656dd3cbc888256946dfed50ba120382d0100ff00000000000000000000000000000000000000000000000000000000000000000000000000000000000000000000000000000000000000000000000000000000f09f90874ec3a96f000000000000000000000000000000000000000000000000bb04dc690c18e8026f4b1f0046fcda69</desc>
    <extensions>
      <meshcore>
        <url>Type: Chat Public Key: 9150fffd5977298186e9deabe8fee30656dd3cbc888256946dfed50ba120382d</url>
      </meshcore>
    </extensions>
  </wpt>
  <wpt lat="48.800831" lon="2.01092">
    <name>FR78 hvq rptr</name>
    <desc>meshcore://03ef8b822c5059aa5c39713f2f6ba9a9c12e9f6701884c0d61880b2c7ce88449b70200ff0000000000000000000000000000000000000000000000000000000000000000000000000000000000000000000000000000000000000000000000000000000046523738206876712072707472000000000000000000000000000000000000003d84dc693fa4e80228af1e00c07bdb69</desc>
    <extensions>
      <meshcore>
        <url>Type: Repeater Public Key: ef8b822c5059aa5c39713f2f6ba9a9c12e9f6701884c0d61880b2c7ce88449b7</url>
      </meshcore>
    </extensions>
  </wpt>
  <wpt lat="49.07513" lon="2.16031">
    <name>FR95AU-MK-REP</name>
    <desc>meshcore://0357a7221aa8f07f77f695434db0bdb16912c5e2b6beecdaf7c36ba7d767135c640200ff000000000000000000000000000000000000000000000000000000000000000000000000000000000000000000000000000000000000000000000000000000004652393541552d4d4b2d52455000000000000000000000000000000000000000fec9de69bad3ec02b6f620007b38dc69</desc>
    <extensions>
      <meshcore>
        <url>Type: Repeater Public Key: 57a7221aa8f07f77f695434db0bdb16912c5e2b6beecdaf7c36ba7d767135c64</url>
      </meshcore>
    </extensions>
  </wpt>
  <wpt lat="48.823001" lon="2.277313">
    <name>RR92F1R</name>
    <desc>meshcore://03793045824a9d83489b2793dfe2adee00067c549864d45385b534287b34029bc90200ff0000000000000000000000000000000000000000000000000000000000000000000000000000000000000000000000000000000000000000000000000000000052523932463152000000000000000000000000000000000000000000000000005cfddc69d9fae802c1bf2200e0f4db69</desc>
    <extensions>
      <meshcore>
        <url>Type: Repeater Public Key: 793045824a9d83489b2793dfe2adee00067c549864d45385b534287b34029bc9</url>
      </meshcore>
    </extensions>
  </wpt>
  <wpt lat="48.755746" lon="2.284546">
    <name>MeshMesh H3-2</name>
    <desc>meshcore://037b03207241b918760a743968d25c8a5bd229a09ad96521c02e34561d145c387b0100ff000000000000000000000000000000000000000000000000000000000000000000000000000000000000000000000000000000000000000000000000000000004d6573684d6573682048332d32000000000000000000000000000000000000007c3ddd6922f4e70202dc22000d35dc69</desc>
    <extensions>
      <meshcore>
        <url>Type: Chat Public Key: 7b03207241b918760a743968d25c8a5bd229a09ad96521c02e34561d145c387b</url>
      </meshcore>
    </extensions>
  </wpt>
  <wpt lat="48.878693" lon="2.242359">
    <name>ghozt_🐵</name>
    <desc>meshcore://037898a62be25927a1c37ebcdb46e52cbc2828930893b6e0a9ba94bfb76ddf1ec20100ff0000000000000000000000000000000000000000000000000000000000000000000000000000000000000000000000000000000000000000000000000000000067686f7a745ff09f90b5000000000000000000000000000000000000000000008b47dd6965d4e90237372200103fdc69</desc>
    <extensions>
      <meshcore>
        <url>Type: Chat Public Key: 7898a62be25927a1c37ebcdb46e52cbc2828930893b6e0a9ba94bfb76ddf1ec2</url>
      </meshcore>
    </extensions>
  </wpt>
</gpx>